NORAD_CAT_ID,OBJECT_NAME,OBJECT_TYPE,EPOCH,MEAN_MOTION,ECCENTRICITY,INCLINATION,RA_OF_ASC_NODE,ARG_OF_PERICENTER,MEAN_ANOMALY,BSTAR,MEAN_MOTION_DOT,MEAN_MOTION_DDOT,TLE_LINE0,TLE_LINE1,TLE_LINE2,SEMIMAJOR_AXIS,PERIOD,APOGEE,PERIGEE,DECAYED
51740.0,STARLINK-3500,PAYLOAD,2022-04-05 06:00:00,15.73262721,9.83e-05,53.2158,288.473,80.8619,214.7651,-0.00069007,-0.00096616,0.0,0 STARLINK-3500,1 51740U 22016AC  22095.25001157 -.00096616  00000-0 -69007-3 0  9992,2 51740  53.2158 288.4730 0000983  80.8619 214.7651 15.73262721  7938,6727.715999999999,91.53,350.24300000000005,348.92,0.0
51740.0,STARLINK-3500,PAYLOAD,2022-04-05 14:00:01,15.73114238,0.0001116,53.2165,286.8159,86.4279,298.2599,-0.0021342,-0.00289007,0.0,0 STARLINK-3500,1 51740U 22016AC  22095.58335648 -.00289007  00000-0 -21342-2 0  9990,2 51740  53.2165 286.8159 0001116  86.4279 298.2599 15.73114238  3704,6728.14,91.538,350.756,349.254,0.0
51740.0,STARLINK-3500,PAYLOAD,2022-04-05 16:00:00,15.72988319,0.0001157,53.2168,286.4025,80.8669,55.9868,-0.0012037,-0.00164782,0.0,0 STARLINK-3500,1 51740U 22016AC  22095.66667824 -.00164782  00000-0 -12037-2 0  9996,2 51740  53.2168 286.4025 0001157  80.8669  55.9868 15.72988319  7991,6728.499,91.545,351.142,349.585,0.0
51740.0,STARLINK-3500,PAYLOAD,2022-04-05 22:00:00,15.73038399,0.0001237,53.2175,285.1629,73.1664,40.1473,-0.0056208,-0.00720194,0.0,0 STARLINK-3500,1 51740U 22016AC  22095.91667824 -.00720194  00000-0 -56208-2 0  9997,2 51740  53.2175 285.1629 0001237  73.1664  40.1473 15.73038399  8033,6728.356,91.543,351.05300000000005,349.389,0.0
51740.0,STARLINK-3500,PAYLOAD,2022-04-06 14:00:01,15.72017651,0.0001128,53.2175,281.8638,88.4987,201.0455,-0.0058655,-0.00719406,0.0,0 STARLINK-3500,1 51740U 22016AC  22096.58334491 -.00719406  00000-0 -58655-2 0  9994,2 51740  53.2175 281.8638 0001128  88.4987 201.0455 15.72017651  3706,6731.268,91.602,353.89300000000014,352.374,0.0
51740.0,STARLINK-3500,PAYLOAD,2022-04-06 22:00:00,15.71506176,0.000102,53.2175,280.2192,87.3544,289.3844,-0.0059796,-0.00717723,0.0,0 STARLINK-3500,1 51740U 22016AC  22096.91667824 -.00717723  00000-0 -59796-2 0  9997,2 51740  53.2175 280.2192 0001020  87.3544 289.3844 15.71506176  8195,6732.729,91.632,355.28,353.907,0.0
51740.0,STARLINK-3500,PAYLOAD,2022-04-07 14:00:01,15.70486076,0.0001262999999999,53.2178,276.9279,68.9147,120.3769,-0.0062315,-0.0071654,0.0,0 STARLINK-3500,1 51740U 22016AC  22097.58334491 -.00716540  00000-0 -62315-2 0  9999,2 51740  53.2178 276.9279 0001263  68.9147 120.3769 15.70486076  3717,6735.644,91.691,358.36,356.658,0.0
51740.0,STARLINK-3500,PAYLOAD,2022-04-07 20:00:01,15.70104503,0.0001281,53.2175,275.6972,70.2551,93.11,-0.0063457,-0.00717948,0.0,0 STARLINK-3500,1 51740U 22016AC  22097.83334491 -.00717948  00000-0 -63457-2 0  9998,2 51740  53.2175 275.6972 0001281  70.2551  93.1100 15.70104503  8347,6736.735,91.714,359.463,357.737,0.0
51740.0,STARLINK-3500,PAYLOAD,2022-04-07 22:00:00,15.69974987,0.0001184,53.2175,275.2869,75.9215,198.726,-0.0063505,-0.00714848,0.0,0 STARLINK-3500,1 51740U 22016AC  22097.91667824 -.00714848  00000-0 -63505-2 0  9996,2 51740  53.2175 275.2869 0001184  75.9215 198.7260 15.69974987  3713,6737.106,91.721,359.76800000000014,358.173,0.0
51740.0,STARLINK-3500,PAYLOAD,2022-04-08 14:00:03,15.68957782,0.0001154,53.2175,272.0033,63.1398,20.5134,-0.0066693,-0.00719165,0.0,0 STARLINK-3500,1 51740U 22016AC  22098.58336806 -.00719165  00000-0 -66693-2 0  9991,2 51740  53.2175 272.0033 0001154  63.1398  20.5134 15.68957782  3703,6740.017,91.781,362.66,361.104,0.0
51740.0,STARLINK-3500,PAYLOAD,2022-04-08 22:00:00,15.6844172,0.0001286,53.2174,270.3659,60.9727,106.0693,-0.0067075,-0.00708903,0.0,0 STARLINK-3500,1 51740U 22016AC  22098.91667824 -.00708903  00000-0 -67075-2 0  9998,2 51740  53.2174 270.3659 0001286  60.9727 106.0693 15.68441720  8518,6741.496,91.811,364.227,362.494,0.0
51740.0,STARLINK-3500,PAYLOAD,2022-04-09 14:00:01,15.674285,0.0001196,53.2178,267.0899,59.6192,272.6193,-0.0071109,-0.00719863,0.0,0 STARLINK-3500,1 51740U 22016AC  22099.58334491 -.00719863  00000-0 -71109-2 0  9993,2 51740  53.2178 267.0899 0001196  59.6192 272.6193 15.67428500  3703,6744.4,91.87,367.072,365.459,0.0
51740.0,STARLINK-3500,PAYLOAD,2022-04-09 22:00:00,15.66914529,0.0001134,53.2174,265.456,60.4231,353.4958,-0.0071848,-0.00712825,0.0,0 STARLINK-3500,1 51740U 22016AC  22099.91667824 -.00712825  00000-0 -71848-2 0  9990,2 51740  53.2174 265.4560 0001134  60.4231 353.4958 15.66914529  8669,6745.875,91.9,368.505,366.975,0.0
51740.0,STARLINK-3500,PAYLOAD,2022-04-10 14:00:01,15.65896262,0.0001406999999999,53.2176,262.1876,54.8082,160.6325,-0.0075187,-0.00715558,0.0,0 STARLINK-3500,1 51740U 22016AC  22100.58334491 -.00715558  00000-0 -75187-2 0  9993,2 51740  53.2176 262.1876 0001407  54.8082 160.6325 15.65896262  3707,6748.799,91.96,371.614,369.715,0.0
51740.0,STARLINK-3500,PAYLOAD,2022-04-10 20:00:01,15.65512528,0.0001289,53.2174,260.9651,69.9337,115.4451,-0.0076094,-0.00713238,0.0,0 STARLINK-3500,1 51740U 22016AC  22100.83334491 -.00713238  00000-0 -76094-2 0  9992,2 51740  53.2174 260.9651 0001289  69.9337 115.4451 15.65512528  8815,6749.901999999999,91.983,372.637,370.897,0.0
51740.0,STARLINK-3500,PAYLOAD,2022-04-10 22:00:00,15.65384742,0.0001104,53.2173,260.5573,74.7703,220.5113,-0.0076373,-0.00712228,0.0,0 STARLINK-3500,1 51740U 22016AC  22100.91667824 -.00712228  00000-0 -76373-2 0  9998,2 51740  53.2173 260.5573 0001104  74.7703 220.5113 15.65384742  3701,6750.269,91.99,372.88,371.389,0.0
51740.0,STARLINK-3500,PAYLOAD,2022-04-11 14:00:01,15.64367378,0.0001343,53.2175,257.2966,49.9106,43.2159,-0.0080136,-0.00717083,0.0,0 STARLINK-3500,1 51740U 22016AC  22101.58334491 -.00717083  00000-0 -80136-2 0  9999,2 51740  53.2175 257.2966 0001343  49.9106  43.2159 15.64367378  3714,6753.196,92.05,375.968,374.154,0.0
51740.0,STARLINK-3500,PAYLOAD,2022-04-11 20:00:01,15.63983253,0.0001142,53.2176,256.0767,62.7987,358.8875,-0.0081056,-0.00714486,0.0,0 STARLINK-3500,1 51740U 22016AC  22101.83334491 -.00714486  00000-0 -81056-2 0  9993,2 51740  53.2176 256.0767 0001142  62.7987 358.8875 15.63983253  8965,6754.301,92.073,376.93800000000016,375.395,0.0
51740.0,STARLINK-3500,PAYLOAD,2022-04-11 22:00:00,15.63854218,0.0001257,53.2173,255.6697,65.0109,106.1191,-0.0081063,-0.00711206,0.0,0 STARLINK-3500,1 51740U 22016AC  22101.91667824 -.00711206  00000-0 -81063-2 0  9996,2 51740  53.2173 255.6697 0001257  65.0109 106.1191 15.63854218  3696,6754.6730000000025,92.08,377.387,375.689,0.0
51740.0,STARLINK-3500,PAYLOAD,2022-04-12 14:00:01,15.62837768,0.0001381,53.2176,252.4166,46.7553,278.5421,-0.0085159,-0.00717184,0.0,0 STARLINK-3500,1 51740U 22016AC  22102.58334491 -.00717184  00000-0 -85159-2 0  9992,2 51740  53.2176 252.4166 0001381  46.7553 278.5421 15.62837768  3692,6757.601,92.14,380.4,378.533,0.0
51740.0,STARLINK-3500,PAYLOAD,2022-04-12 20:00:01,15.624529999999998,0.0001230999999999,53.2175,251.1994,64.7326,227.7458,-0.0085935,-0.00713173,0.0,0 STARLINK-3500,1 51740U 22016AC  22102.83334491 -.00713173  00000-0 -85935-2 0  9996,2 51740  53.2175 251.1994 0001231  64.7326 227.7458 15.62453000  9121,6758.7109999999975,92.163,381.408,379.744,0.0
51740.0,STARLINK-3500,PAYLOAD,2022-04-12 22:00:00,15.62326894,0.0001168,53.2171,250.7933,54.7601,346.7015,-0.0086555,-0.00714629,0.0,0 STARLINK-3500,1 51740U 22016AC  22102.91667824 -.00714629  00000-0 -86555-2 0  9990,2 51740  53.2171 250.7933 0001168  54.7601 346.7015 15.62326894  3696,6759.075,92.17,381.729,380.15,0.0
51740.0,STARLINK-3500,PAYLOAD,2022-04-13 14:00:03,15.61304984,0.0001633,53.2173,247.5475,43.3228,148.7619,-0.0089732999999999,-0.00712187,0.0,0 STARLINK-3500,1 51740U 22016AC  22103.58336806 -.00712187  00000-0 -89733-2 0  9995,2 51740  53.2173 247.5475 0001633  43.3228 148.7619 15.61304984  3728,6762.024,92.231,384.99300000000005,382.784,0.0
51740.0,STARLINK-3500,PAYLOAD,2022-04-13 22:00:00,15.60797261,0.000127,53.2171,245.9278,60.043,206.2363,-0.0091918,-0.00714964,0.0,0 STARLINK-3500,1 51740U 22016AC  22103.91667824 -.00714964  00000-0 -91918-2 0  9992,2 51740  53.2171 245.9278 0001270  60.0430 206.2363 15.60797261  9294,6763.49,92.261,386.214,384.496,0.0
51740.0,STARLINK-3500,PAYLOAD,2022-04-14 14:00:01,15.59777998,0.0001465,53.2176,242.6901,41.1401,11.9542,-0.0095869,-0.00716813,0.0,0 STARLINK-3500,1 51740U 22016AC  22104.58334491 -.00716813  00000-0 -95869-2 0  9991,2 51740  53.2176 242.6901 0001465  41.1401  11.9542 15.59777998  3703,6766.436,92.321,389.292,387.31,0.0
51740.0,STARLINK-3500,PAYLOAD,2022-04-14 22:00:00,15.59267236,0.0001341,53.2171,241.0735,52.5937,72.9887,-0.0097501,-0.00715012,0.0,0 STARLINK-3500,1 51740U 22016AC  22104.91667824 -.00715012  00000-0 -97501-2 0  9992,2 51740  53.2171 241.0735 0001341  52.5937  72.9887 15.59267236  9455,6767.9140000000025,92.351,390.686,388.871,0.0
51740.0,STARLINK-3500,PAYLOAD,2022-04-15 14:00:01,15.58245395,0.0001658,53.2174,237.8434,40.9418,227.7792,-0.010089,-0.00711947,0.0,0 STARLINK-3500,1 51740U 22016AC  22105.58334491 -.00711947  00000-0 -10089-1 0  9995,2 51740  53.2174 237.8434 0001658  40.9418 227.7792 15.58245395  3701,6770.871999999999,92.412,393.86,391.614,0.0
51740.0,STARLINK-3500,PAYLOAD,2022-04-15 22:00:00,15.57738039,0.0001213,53.2171,236.2305,56.7411,282.6281,-0.01034,-0.00715369,0.0,0 STARLINK-3500,1 51740U 22016AC  22105.91667824 -.00715369  00000-0 -10340-1 0  9993,2 51740  53.2171 236.2305 0001213  56.7411 282.6281 15.57738039  9602,6772.342,92.442,395.029,393.386,0.0
51740.0,STARLINK-3500,PAYLOAD,2022-04-16 14:00:01,15.56716471,0.000173,53.2172,233.0079,35.9649,82.8665,-0.010715,-0.00713605,0.0,0 STARLINK-3500,1 51740U 22016AC  22106.58334491 -.00713605  00000-0 -10715-1 0  9995,2 51740  53.2172 233.0079 0001730  35.9649  82.8665 15.56716471  3708,6775.305,92.502,398.342,395.99800000000016,0.0
